{
  "type": "FeatureCollection",
  "features": [
    {
      "type": "Feature",
      "geometry": {
        "type": "Point",
        "coordinates": [
          80.2707,
          13.0827
        ]
      },
      "properties": {
        "target_location": {
          "latitude": 13.0827,
          "longitude": 80.2707,
          "label": "Chennai_City"
        },
        "timestamp": "2026-06-15T14:30:00",
        "nearest_storm_id": "STM_260615_001",
        "distance_km": 69.45,
        "storm_heading_deg": 57.9,
        "storm_speed_kmh": 32.8,
        "is_approaching": true,
        "estimated_arrival_minutes": 149.2,
        "estimated_arrival_time": "2026-06-15T16:59:13.176066",
        "hazard_risks": {
          "lightning": 0.213,
          "hail": 0.257,
          "downburst": 0.229,
          "cloudburst": 0.244
        },
        "confidence": 0.643,
        "status": "APPROACHING",
        "feature_type": "site_eta_marker"
      },
      "id": "target_site_eta"
    }
  ]
}