{
  "type": "FeatureCollection",
  "crs": {
    "type": "name",
    "properties": {
      "name": "urn:ogc:def:crs:OGC:1.3:CRS84"
    }
  },
  "features": [
    {
      "type": "Feature",
      "geometry": {
        "type": "Point",
        "coordinates": [
          79.6674,
          13.1004
        ]
      },
      "properties": {
        "storm_id": "STM_260615_001",
        "timestamp": "2026-06-15T14:40:00",
        "centroid_lat": 13.1004,
        "centroid_lon": 79.6674,
        "area_km2": 924.0,
        "intensity": 56.24,
        "confidence": 0.826,
        "speed_kmh": 29.98,
        "heading_deg": 59.0,
        "velocity_u_kmh": 25.7,
        "velocity_v_kmh": 15.44,
        "growth_rate_km2_hr": 1008.0,
        "intensity_trend_dbz_hr": 16.67,
        "lightning_trend": 0.35,
        "convective_stage": "MATURE",
        "indicators": {
          "max_dbz": 56.24,
          "mean_dbz": 38.94,
          "min_bt_k": 210.0,
          "max_cooling_k_15min": -30.98,
          "max_growth_dbz_15min": 28.84,
          "max_lightning_density": 0.17
        },
        "history_points": 5,
        "hazards": {
          "lightning": 0.8114926800131796,
          "hail": 0.93,
          "downburst": 0.749937152805322,
          "cloudburst": 0.8
        },
        "feature_type": "storm_centroid"
      },
      "id": "STM_260615_001_centroid"
    },
    {
      "type": "Feature",
      "geometry": {
        "type": "Polygon",
        "coordinates": [
          [
            [
              79.5939,
              12.972
            ],
            [
              79.5399,
              13.008
            ],
            [
              79.5219,
              13.062
            ],
            [
              79.5399,
              13.188
            ],
            [
              79.6119,
              13.242
            ],
            [
              79.7559,
              13.224
            ],
            [
              79.8099,
              13.134
            ],
            [
              79.7919,
              13.008
            ],
            [
              79.7019,
              12.954
            ],
            [
              79.5939,
              12.972
            ]
          ]
        ]
      },
      "properties": {
        "storm_id": "STM_260615_001",
        "timestamp": "2026-06-15T14:40:00",
        "centroid_lat": 13.1004,
        "centroid_lon": 79.6674,
        "area_km2": 924.0,
        "intensity": 56.24,
        "confidence": 0.826,
        "speed_kmh": 29.98,
        "heading_deg": 59.0,
        "velocity_u_kmh": 25.7,
        "velocity_v_kmh": 15.44,
        "growth_rate_km2_hr": 1008.0,
        "intensity_trend_dbz_hr": 16.67,
        "lightning_trend": 0.35,
        "convective_stage": "MATURE",
        "indicators": {
          "max_dbz": 56.24,
          "mean_dbz": 38.94,
          "min_bt_k": 210.0,
          "max_cooling_k_15min": -30.98,
          "max_growth_dbz_15min": 28.84,
          "max_lightning_density": 0.17
        },
        "history_points": 5,
        "hazards": {
          "lightning": 0.8114926800131796,
          "hail": 0.93,
          "downburst": 0.749937152805322,
          "cloudburst": 0.8
        },
        "feature_type": "storm_boundary"
      },
      "id": "STM_260615_001_boundary"
    }
  ]
}