{
  "type": "FeatureCollection",
  "crs": {
    "type": "name",
    "properties": {
      "name": "urn:ogc:def:crs:OGC:1.3:CRS84"
    }
  },
  "features": [
    {
      "type": "Feature",
      "geometry": {
        "type": "Point",
        "coordinates": [
          79.7082,
          13.1257
        ]
      },
      "properties": {
        "storm_id": "STM_260615_001",
        "timestamp": "2026-06-15T14:50:00",
        "centroid_lat": 13.1257,
        "centroid_lon": 79.7082,
        "area_km2": 924.0,
        "intensity": 57.03,
        "confidence": 0.829,
        "speed_kmh": 30.9,
        "heading_deg": 58.0,
        "velocity_u_kmh": 26.21,
        "velocity_v_kmh": 16.37,
        "growth_rate_km2_hr": 0.0,
        "intensity_trend_dbz_hr": 4.74,
        "lightning_trend": -0.09,
        "convective_stage": "MATURE",
        "indicators": {
          "max_dbz": 57.03,
          "mean_dbz": 38.81,
          "min_bt_k": 210.13,
          "max_cooling_k_15min": -18.5,
          "max_growth_dbz_15min": 24.44,
          "max_lightning_density": 0.16
        },
        "history_points": 6,
        "hazards": {
          "lightning": 0.7817793875932693,
          "hail": 0.93,
          "downburst": 0.75,
          "cloudburst": 0.8
        },
        "feature_type": "storm_centroid"
      },
      "id": "STM_260615_001_centroid"
    },
    {
      "type": "Feature",
      "geometry": {
        "type": "Polygon",
        "coordinates": [
          [
            [
              79.7019,
              12.972
            ],
            [
              79.6299,
              12.99
            ],
            [
              79.5579,
              13.098
            ],
            [
              79.5759,
              13.206
            ],
            [
              79.6839,
              13.278
            ],
            [
              79.8279,
              13.224
            ],
            [
              79.8639,
              13.17
            ],
            [
              79.8279,
              13.026
            ],
            [
              79.7019,
              12.972
            ]
          ]
        ]
      },
      "properties": {
        "storm_id": "STM_260615_001",
        "timestamp": "2026-06-15T14:50:00",
        "centroid_lat": 13.1257,
        "centroid_lon": 79.7082,
        "area_km2": 924.0,
        "intensity": 57.03,
        "confidence": 0.829,
        "speed_kmh": 30.9,
        "heading_deg": 58.0,
        "velocity_u_kmh": 26.21,
        "velocity_v_kmh": 16.37,
        "growth_rate_km2_hr": 0.0,
        "intensity_trend_dbz_hr": 4.74,
        "lightning_trend": -0.09,
        "convective_stage": "MATURE",
        "indicators": {
          "max_dbz": 57.03,
          "mean_dbz": 38.81,
          "min_bt_k": 210.13,
          "max_cooling_k_15min": -18.5,
          "max_growth_dbz_15min": 24.44,
          "max_lightning_density": 0.16
        },
        "history_points": 6,
        "hazards": {
          "lightning": 0.7817793875932693,
          "hail": 0.93,
          "downburst": 0.75,
          "cloudburst": 0.8
        },
        "feature_type": "storm_boundary"
      },
      "id": "STM_260615_001_boundary"
    }
  ]
}