{
  "type": "FeatureCollection",
  "crs": {
    "type": "name",
    "properties": {
      "name": "urn:ogc:def:crs:OGC:1.3:CRS84"
    }
  },
  "features": [
    {
      "type": "Feature",
      "geometry": {
        "type": "Point",
        "coordinates": [
          79.6295,
          13.0788
        ]
      },
      "properties": {
        "storm_id": "STM_260615_001",
        "timestamp": "2026-06-15T14:30:00",
        "centroid_lat": 13.0788,
        "centroid_lon": 79.6295,
        "area_km2": 756.0,
        "intensity": 53.46,
        "confidence": 0.715,
        "speed_kmh": 32.84,
        "heading_deg": 57.9,
        "velocity_u_kmh": 27.82,
        "velocity_v_kmh": 17.46,
        "growth_rate_km2_hr": 672.0,
        "intensity_trend_dbz_hr": 28.46,
        "lightning_trend": 0.32,
        "convective_stage": "INTENSIFYING",
        "indicators": {
          "max_dbz": 53.46,
          "mean_dbz": 37.7,
          "min_bt_k": 221.3,
          "max_cooling_k_15min": -28.89,
          "max_growth_dbz_15min": 28.46,
          "max_lightning_density": 0.12
        },
        "history_points": 4,
        "hazards": {
          "lightning": 0.6981283744027216,
          "hail": 0.8420857209425706,
          "downburst": 0.75,
          "cloudburst": 0.8
        },
        "feature_type": "storm_centroid"
      },
      "id": "STM_260615_001_centroid"
    },
    {
      "type": "Feature",
      "geometry": {
        "type": "Polygon",
        "coordinates": [
          [
            [
              79.6299,
              12.936
            ],
            [
              79.5759,
              12.954
            ],
            [
              79.4859,
              13.08
            ],
            [
              79.5039,
              13.152
            ],
            [
              79.5759,
              13.206
            ],
            [
              79.6839,
              13.206
            ],
            [
              79.7559,
              13.134
            ],
            [
              79.7739,
              13.062
            ],
            [
              79.7379,
              12.99
            ],
            [
              79.6299,
              12.936
            ]
          ]
        ]
      },
      "properties": {
        "storm_id": "STM_260615_001",
        "timestamp": "2026-06-15T14:30:00",
        "centroid_lat": 13.0788,
        "centroid_lon": 79.6295,
        "area_km2": 756.0,
        "intensity": 53.46,
        "confidence": 0.715,
        "speed_kmh": 32.84,
        "heading_deg": 57.9,
        "velocity_u_kmh": 27.82,
        "velocity_v_kmh": 17.46,
        "growth_rate_km2_hr": 672.0,
        "intensity_trend_dbz_hr": 28.46,
        "lightning_trend": 0.32,
        "convective_stage": "INTENSIFYING",
        "indicators": {
          "max_dbz": 53.46,
          "mean_dbz": 37.7,
          "min_bt_k": 221.3,
          "max_cooling_k_15min": -28.89,
          "max_growth_dbz_15min": 28.46,
          "max_lightning_density": 0.12
        },
        "history_points": 4,
        "hazards": {
          "lightning": 0.6981283744027216,
          "hail": 0.8420857209425706,
          "downburst": 0.75,
          "cloudburst": 0.8
        },
        "feature_type": "storm_boundary"
      },
      "id": "STM_260615_001_boundary"
    }
  ]
}